$$SOE
2460714.500000000, A.D. 2025-Feb-08 00:00:00.0000, -3.167079211268702E+08, -4.735865254340402E+08, -1.147880245465627E+07,
2460721.500000000, A.D. 2025-Feb-15 00:00:00.0000, -3.093129307894905E+08, -4.781662829903101E+08, -1.011481449707547E+07,
2460728.500000000, A.D. 2025-Feb-22 00:00:00.0000, -3.018366783028166E+08, -4.826204862437811E+08, -8.748168771590292E+06,
2460735.500000000, A.D. 2025-Mar-01 00:00:00.0000, -2.942810100285709E+08, -4.869477794153326E+08, -7.379221152154773E+06,
2460742.500000000, A.D. 2025-Mar-08 00:00:00.0000, -2.866477921710313E+08, -4.911468273769460E+08, -6.008329174819201E+06,
2460749.500000000, A.D. 2025-Mar-15 00:00:00.0000, -2.789389108320933E+08, -4.952163140496980E+08, -4.635851870499194E+06,
2460756.500000000, A.D. 2025-Mar-22 00:00:00.0000, -2.711562742752951E+08, -4.991549422249316E+08, -3.262149508839965E+06,
2460763.500000000, A.D. 2025-Mar-29 00:00:00.0000, -2.633018138209285E+08, -5.029614356512620E+08, -1.887583650342673E+06,
2460770.500000000, A.D. 2025-Apr-05 00:00:00.0000, -2.553774830471769E+08, -5.066345402498860E+08, -5.125172803089321E+05,
2460777.500000000, A.D. 2025-Apr-12 00:00:00.0000, -2.473852572234076E+08, -5.101730243542423E+08, 8.626851603890955E+05,
2460784.500000000, A.D. 2025-Apr-19 00:00:00.0000, -2.393271331627465E+08, -5.135756788549334E+08, 2.237657792699724E+06,
2460791.500000000, A.D. 2025-Apr-26 00:00:00.0000, -2.312051292220258E+08, -5.168413174522582E+08, 3.612033323276103E+06,
2460798.500000000, A.D. 2025-May-03 00:00:00.0000, -2.230212853349658E+08, -5.199687769963951E+08, 4.985443065845042E+06,
2460805.500000000, A.D. 2025-May-10 00:00:00.0000, -2.147776630493446E+08, -5.229569179058537E+08, 6.357516958016217E+06,
2460812.500000000, A.D. 2025-May-17 00:00:00.0000, -2.064763455306141E+08, -5.258046247047459E+08, 7.727883566702425E+06,
2460819.500000000, A.D. 2025-May-24 00:00:00.0000, -1.981194373572087E+08, -5.285108067332414E+08, 9.096170061672062E+06,
2460826.500000000, A.D. 2025-May-31 00:00:00.0000, -1.897090636891338E+08, -5.310743987205032E+08, 1.046200214430311E+07,
2460833.500000000, A.D. 2025-Jun-07 00:00:00.0000, -1.812473692104110E+08, -5.334943600156141E+08, 1.182500406680760E+07,
2460840.500000000, A.D. 2025-Jun-14 00:00:00.0000, -1.727365192095486E+08, -5.357696731432810E+08, 1.318479890436321E+07,
2460847.500000000, A.D. 2025-Jun-21 00:00:00.0000, -1.641787015806073E+08, -5.378993449556911E+08, 1.454100870125553E+07,
2460854.500000000, A.D. 2025-Jun-28 00:00:00.0000, -1.555761266162305E+08, -5.398824086164869E+08, 1.589325434844539E+07,
2460861.500000000, A.D. 2025-Jul-05 00:00:00.0000, -1.469310261092568E+08, -5.417179242608607E+08, 1.724115550811782E+07,
2460868.500000000, A.D. 2025-Jul-12 00:00:00.0000, -1.382456529537052E+08, -5.434049791370373E+08, 1.858433062883410E+07,
2460875.500000000, A.D. 2025-Jul-19 00:00:00.0000, -1.295222810551561E+08, -5.449426878039627E+08, 1.992239698707399E+07,
2460882.500000000, A.D. 2025-Jul-26 00:00:00.0000, -1.207632053400530E+08, -5.463301924414958E+08, 2.125497073143774E+07,
2460889.500000000, A.D. 2025-Aug-02 00:00:00.0000, -1.119707417978841E+08, -5.475666632512729E+08, 2.258166692543742E+07,
2460896.500000000, A.D. 2025-Aug-09 00:00:00.0000, -1.031472275321631E+08, -5.486512989628143E+08, 2.390209958574256E+07,
2460903.500000000, A.D. 2025-Aug-16 00:00:00.0000, -9.429502074269639E+07, -5.495833275080987E+08, 2.521588170392939E+07,
2460910.500000000, A.D. 2025-Aug-23 00:00:00.0000, -8.541650034604603E+07, -5.503620068481110E+08, 2.652262522658050E+07,
2460917.500000000, A.D. 2025-Aug-30 00:00:00.0000, -7.651406490485226E+07, -5.509866252372234E+08, 2.782194102228492E+07,
2460924.500000000, A.D. 2025-Sep-06 00:00:00.0000, -6.759013228374134E+07, -5.514564999247428E+08, 2.911343904770792E+07,
2460931.500000000, A.D. 2025-Sep-13 00:00:00.0000, -5.864714170182385E+07, -5.517709767757187E+08, 3.039672866332543E+07,
2460938.500000000, A.D. 2025-Sep-20 00:00:00.0000, -4.968755490743842E+07, -5.519294324551213E+08, 3.167141866446629E+07,
2460945.500000000, A.D. 2025-Sep-27 00:00:00.0000, -4.071385541575811E+07, -5.519312760642250E+08, 3.293711718520546E+07,
2460952.500000000, A.D. 2025-Oct-04 00:00:00.0000, -3.172854782545060E+07, -5.517759496901346E+08, 3.419343170448807E+07,
2460959.500000000, A.D. 2025-Oct-11 00:00:00.0000, -2.273415758751268E+07, -5.514629288111901E+08, 3.543996911192268E+07,
2460966.500000000, A.D. 2025-Oct-18 00:00:00.0000, -1.373323094197205E+07, -5.509917228321735E+08, 3.667633578492367E+07,
2460973.500000000, A.D. 2025-Oct-25 00:00:00.0000, -4.728334882174442E+06, -5.503618757376863E+08, 3.790213766532451E+07,
2460980.500000000, A.D. 2025-Nov-01 00:00:00.0000, 4.277942893673036E+06, -5.495729668475599E+08, 3.911698033304861E+07,
2460987.500000000, A.D. 2025-Nov-08 00:00:00.0000, 1.328299407923636E+07, -5.486246117052208E+08, 4.032046907102317E+07,
2460994.500000000, A.D. 2025-Nov-15 00:00:00.0000, 2.228419005385681E+07, -5.475164631572859E+08, 4.151220890293086E+07,
2461001.500000000, A.D. 2025-Nov-22 00:00:00.0000, 3.127888277688522E+07, -5.462482124041576E+08, 4.269180458483949E+07,
2461008.500000000, A.D. 2025-Nov-29 00:00:00.0000, 4.026440612990773E+07, -5.448195888864191E+08, 4.385886065751737E+07,
2461015.500000000, A.D. 2025-Dec-06 00:00:00.0000, 4.923807542988670E+07, -5.432303591423790E+08, 4.501298175714669E+07,
2461022.500000000, A.D. 2025-Dec-13 00:00:00.0000, 5.819718554762301E+07, -5.414803280059791E+08, 4.615377286908400E+07,
2461029.500000000, A.D. 2025-Dec-20 00:00:00.0000, 6.713901112575011E+07, -5.395693411212978E+08, 4.728083928786603E+07,
2461036.500000000, A.D. 2025-Dec-27 00:00:00.0000, 7.606080782310894E+07, -5.374972861819955E+08, 4.839378659385750E+07,
2461043.500000000, A.D. 2026-Jan-03 00:00:00.0000, 8.495981312666626E+07, -5.352640935101359E+08, 4.949222073016572E+07,
2461050.500000000, A.D. 2026-Jan-10 00:00:00.0000, 9.383324684134720E+07, -5.328697366514209E+08, 5.057574811426544E+07,
2461057.500000000, A.D. 2026-Jan-17 00:00:00.0000, 1.026783114913955E+08, -5.303142330762994E+08, 5.164397575547516E+07,
2461064.500000000, A.D. 2026-Jan-24 00:00:00.0000, 1.114921927126664E+08, -5.275976449623756E+08, 5.269651137299213E+07,
2461071.500000000, A.D. 2026-Jan-31 00:00:00.0000, 1.202720596609805E+08, -5.247200800641020E+08, 5.373296351185456E+07,
2461078.500000000, A.D. 2026-Feb-07 00:00:00.0000, 1.290150654996559E+08, -5.216816927262201E+08, 5.475294164679530E+07,
2461085.500000000, A.D. 2026-Feb-14 00:00:00.0000, 1.377183482205484E+08, -5.184826850557229E+08, 5.575605624995184E+07,
2461092.500000000, A.D. 2026-Feb-21 00:00:00.0000, 1.463790321869889E+08, -5.151233076748648E+08, 5.674191883451730E+07,
2461099.500000000, A.D. 2026-Feb-28 00:00:00.0000, 1.549942293141983E+08, -5.116038589010039E+08, 5.771014216846457E+07,
2461106.500000000, A.D. 2026-Mar-07 00:00:00.0000, 1.635610378288931E+08, -5.079246843017703E+08, 5.866034068789494E+07,
2461113.500000000, A.D. 2026-Mar-14 00:00:00.0000, 1.720765413846337E+08, -5.040861789563959E+08, 5.959213066472238E+07,
2461120.500000000, A.D. 2026-Mar-21 00:00:00.0000, 1.805378103171925E+08, -5.000887895241110E+08, 6.050513020213805E+07,
2461127.500000000, A.D. 2026-Mar-28 00:00:00.0000, 1.889419030317213E+08, -4.959330150902952E+08, 6.139895932650773E+07,
2461134.500000000, A.D. 2026-Apr-04 00:00:00.0000, 1.972858669189328E+08, -4.916194077551479E+08, 6.227324015242794E+07,
2461141.500000000, A.D. 2026-Apr-11 00:00:00.0000, 2.055667390751366E+08, -4.871485733237450E+08, 6.312759706664868E+07,
2461148.500000000, A.D. 2026-Apr-18 00:00:00.0000, 2.137815469863981E+08, -4.825211721029946E+08, 6.396165691594422E+07,
2461155.500000000, A.D. 2026-Apr-25 00:00:00.0000, 2.219273092237144E+08, -4.777379197894418E+08, 6.477504919611825E+07,
2461162.500000000, A.D. 2026-May-02 00:00:00.0000, 2.300010361811295E+08, -4.727995884759951E+08, 6.556740623703252E+07,
2461169.500000000, A.D. 2026-May-09 00:00:00.0000, 2.379997309828957E+08, -4.677070078422049E+08, 6.633836336694187E+07,
2461176.500000000, A.D. 2026-May-16 00:00:00.0000, 2.459203909393232E+08, -4.624610663884295E+08, 6.708755903299369E+07,
2461183.500000000, A.D. 2026-May-23 00:00:00.0000, 2.537600096046403E+08, -4.570627116905831E+08, 6.781463495699099E+07,
2461190.500000000, A.D. 2026-May-30 00:00:00.0000, 2.615155773592591E+08, -4.515129493548855E+08, 6.851923654333143E+07,
2461197.500000000, A.D. 2026-Jun-06 00:00:00.0000, 2.691840801994985E+08, -4.458128439441905E+08, 6.920101330046675E+07,
2461204.500000000, A.D. 2026-Jun-13 00:00:00.0000, 2.767625004015901E+08, -4.399635216745406E+08, 6.985961895554841E+07,
2461211.500000000, A.D. 2026-Jun-20 00:00:00.0000, 2.842478185602269E+08, -4.339661719541497E+08, 7.049471154720788E+07,
2461218.500000000, A.D. 2026-Jun-27 00:00:00.0000, 2.916370153042502E+08, -4.278220481032978E+08, 7.110595362435549E+07,
2461225.500000000, A.D. 2026-Jul-04 00:00:00.0000, 2.989270726900014E+08, -4.215324680283721E+08, 7.169301248745610E+07,
2461232.500000000, A.D. 2026-Jul-11 00:00:00.0000, 3.061149755267676E+08, -4.150988149801021E+08, 7.225556043792613E+07,
2461239.500000000, A.D. 2026-Jul-18 00:00:00.0000, 3.131977127273868E+08, -4.085225383682556E+08, 7.279327502892941E+07,
2461246.500000000, A.D. 2026-Jul-25 00:00:00.0000, 3.201722787086022E+08, -4.018051546278491E+08, 7.330583931517085E+07,
2461253.500000000, A.D. 2026-Aug-01 00:00:00.0000, 3.270356748893226E+08, -3.949482481824193E+08, 7.379294209289332E+07,
2461260.500000000, A.D. 2026-Aug-08 00:00:00.0000, 3.337849115019344E+08, -3.879534725373709E+08, 7.425427810702471E+07,
2461267.500000000, A.D. 2026-Aug-15 00:00:00.0000, 3.404170101323673E+08, -3.808225510503891E+08, 7.468954822406556E+07,
2461274.500000000, A.D. 2026-Aug-22 00:00:00.0000, 3.469290062284588E+08, -3.735572761556747E+08, 7.509845974045208E+07,
2461281.500000000, A.D. 2026-Aug-29 00:00:00.0000, 3.533179492870849E+08, -3.661595084128488E+08, 7.548072692412095E+07,
$$EOE